STARLINK-36719          
1 67648U 26022A   26043.58335648 -.01695068  00000+0 -83111-2 0  9992
2 67648  97.2839  76.2857 0001185  87.0822 295.0231 15.85142789  2855
STARLINK-36342          
1 67649U 26022B   26043.58335648 -.01690722  00000+0 -82247-2 0  9994
2 67649  97.2839  76.2870 0001282  94.1348 291.6299 15.85295997  2857
STARLINK-36703          
1 67650U 26022C   26043.58335648 -.01696501  00000+0 -81721-2 0  9993
2 67650  97.2837  76.2890 0001415  91.4578 298.9413 15.85507633  2853
STARLINK-36696          
1 67651U 26022D   26043.58335648 -.01684921  00000+0 -80274-2 0  9999
2 67651  97.2836  76.2909 0001301  92.0988 303.1786 15.85713766  2858
STARLINK-36699          
1 67652U 26022E   26043.58335648 -.01682910  00000+0 -79458-2 0  9998
2 67652  97.2835  76.2927 0001295  92.6225 306.8190 15.85895243  2850
STARLINK-36694          
1 67653U 26022F   26043.58335648 -.01676451  00000+0 -78203-2 0  9999
2 67653  97.2835  76.2951 0001245  93.9640 310.8330 15.86131237  2856
STARLINK-36620          
1 67654U 26022G   26043.58335648 -.01676753  00000+0 -77424-2 0  9999
2 67654  97.2830  76.2966 0001306  89.9298 319.5273 15.86338922  2852
STARLINK-36720          
1 67655U 26022H   26043.58335648 -.01681967  00000+0 -76746-2 0  9999
2 67655  97.2832  76.2993 0001371  90.4860 324.3938 15.86590028  2858
STARLINK-36688          
1 67656U 26022J   26043.58335648 -.01677477  00000+0 -75877-2 0  9995
2 67656  97.2826  76.3002 0001378  85.6781 333.1664 15.86759027  2859
STARLINK-36706          
1 67657U 26022K   26043.58335648 -.01674456  00000+0 -74974-2 0  9997
2 67657  97.2823  76.3017 0001385  85.2228 338.1751 15.86959783  2823
STARLINK-36701          
1 67658U 26022L   26043.58335648 -.01665614  00000+0 -73717-2 0  9998
2 67658  97.2823  76.3047 0001376  90.4241 337.9970 15.87178804  2851
STARLINK-36642          
1 67659U 26022M   26043.58335648 -.01670019  00000+0 -73348-2 0  9994
2 67659  97.2824  76.3063 0001345  84.8737 347.1945 15.87341952  2855
