CCSDS_OMM_VERS = 2.0
CREATION_DATE  = 
ORIGINATOR     = 

OBJECT_NAME    = STARLINK-36719
OBJECT_ID      = 2026-022A
CENTER_NAME    = EARTH
REF_FRAME      = TEME
TIME_SYSTEM    = UTC
MEAN_ELEMENT_THEORY = SGP/SGP4

EPOCH          = 2026-02-12T14:00:01.999872
MEAN_MOTION    = 15.85142789
ECCENTRICITY   = .00011853
INCLINATION    = 97.2839
RA_OF_ASC_NODE = 76.2857
ARG_OF_PERICENTER = 87.0822
MEAN_ANOMALY   = 295.0231

EPHEMERIS_TYPE = 0
CLASSIFICATION_TYPE = U
NORAD_CAT_ID   = 67648
ELEMENT_SET_NO = 999
REV_AT_EPOCH   = 285
BSTAR          = -.83111172E-2
MEAN_MOTION_DOT = -.1695068E-1
MEAN_MOTION_DDOT = 0

CCSDS_OMM_VERS = 2.0
CREATION_DATE  = 
ORIGINATOR     = 

OBJECT_NAME    = STARLINK-36342
OBJECT_ID      = 2026-022B
CENTER_NAME    = EARTH
REF_FRAME      = TEME
TIME_SYSTEM    = UTC
MEAN_ELEMENT_THEORY = SGP/SGP4

EPOCH          = 2026-02-12T14:00:01.999872
MEAN_MOTION    = 15.85295997
ECCENTRICITY   = .00012823
INCLINATION    = 97.2839
RA_OF_ASC_NODE = 76.2870
ARG_OF_PERICENTER = 94.1348
MEAN_ANOMALY   = 291.6299

EPHEMERIS_TYPE = 0
CLASSIFICATION_TYPE = U
NORAD_CAT_ID   = 67649
ELEMENT_SET_NO = 999
REV_AT_EPOCH   = 285
BSTAR          = -.8224724E-2
MEAN_MOTION_DOT = -.1690722E-1
MEAN_MOTION_DDOT = 0

CCSDS_OMM_VERS = 2.0
CREATION_DATE  = 
ORIGINATOR     = 

OBJECT_NAME    = STARLINK-36703
OBJECT_ID      = 2026-022C
CENTER_NAME    = EARTH
REF_FRAME      = TEME
TIME_SYSTEM    = UTC
MEAN_ELEMENT_THEORY = SGP/SGP4

EPOCH          = 2026-02-12T14:00:01.999872
MEAN_MOTION    = 15.85507633
ECCENTRICITY   = .00014157
INCLINATION    = 97.2837
RA_OF_ASC_NODE = 76.2890
ARG_OF_PERICENTER = 91.4578
MEAN_ANOMALY   = 298.9413

EPHEMERIS_TYPE = 0
CLASSIFICATION_TYPE = U
NORAD_CAT_ID   = 67650
ELEMENT_SET_NO = 999
REV_AT_EPOCH   = 285
BSTAR          = -.81720681E-2
MEAN_MOTION_DOT = -.1696501E-1
MEAN_MOTION_DDOT = 0

CCSDS_OMM_VERS = 2.0
CREATION_DATE  = 
ORIGINATOR     = 

OBJECT_NAME    = STARLINK-36696
OBJECT_ID      = 2026-022D
CENTER_NAME    = EARTH
REF_FRAME      = TEME
TIME_SYSTEM    = UTC
MEAN_ELEMENT_THEORY = SGP/SGP4

EPOCH          = 2026-02-12T14:00:01.999872
MEAN_MOTION    = 15.85713766
ECCENTRICITY   = .00013016
INCLINATION    = 97.2836
RA_OF_ASC_NODE = 76.2909
ARG_OF_PERICENTER = 92.0988
MEAN_ANOMALY   = 303.1786

EPHEMERIS_TYPE = 0
CLASSIFICATION_TYPE = U
NORAD_CAT_ID   = 67651
ELEMENT_SET_NO = 999
REV_AT_EPOCH   = 285
BSTAR          = -.80274381E-2
MEAN_MOTION_DOT = -.1684921E-1
MEAN_MOTION_DDOT = 0

CCSDS_OMM_VERS = 2.0
CREATION_DATE  = 
ORIGINATOR     = 

OBJECT_NAME    = STARLINK-36699
OBJECT_ID      = 2026-022E
CENTER_NAME    = EARTH
REF_FRAME      = TEME
TIME_SYSTEM    = UTC
MEAN_ELEMENT_THEORY = SGP/SGP4

EPOCH          = 2026-02-12T14:00:01.999872
MEAN_MOTION    = 15.85895243
ECCENTRICITY   = .00012958
INCLINATION    = 97.2835
RA_OF_ASC_NODE = 76.2927
ARG_OF_PERICENTER = 92.6225
MEAN_ANOMALY   = 306.8190

EPHEMERIS_TYPE = 0
CLASSIFICATION_TYPE = U
NORAD_CAT_ID   = 67652
ELEMENT_SET_NO = 999
REV_AT_EPOCH   = 285
BSTAR          = -.79458198E-2
MEAN_MOTION_DOT = -.168291E-1
MEAN_MOTION_DDOT = 0

CCSDS_OMM_VERS = 2.0
CREATION_DATE  = 
ORIGINATOR     = 

OBJECT_NAME    = STARLINK-36694
OBJECT_ID      = 2026-022F
CENTER_NAME    = EARTH
REF_FRAME      = TEME
TIME_SYSTEM    = UTC
MEAN_ELEMENT_THEORY = SGP/SGP4

EPOCH          = 2026-02-12T14:00:01.999872
MEAN_MOTION    = 15.86131237
ECCENTRICITY   = .00012452
INCLINATION    = 97.2835
RA_OF_ASC_NODE = 76.2951
ARG_OF_PERICENTER = 93.9640
MEAN_ANOMALY   = 310.8330

EPHEMERIS_TYPE = 0
CLASSIFICATION_TYPE = U
NORAD_CAT_ID   = 67653
ELEMENT_SET_NO = 999
REV_AT_EPOCH   = 285
BSTAR          = -.78202734E-2
MEAN_MOTION_DOT = -.1676451E-1
MEAN_MOTION_DDOT = 0

CCSDS_OMM_VERS = 2.0
CREATION_DATE  = 
ORIGINATOR     = 

OBJECT_NAME    = STARLINK-36620
OBJECT_ID      = 2026-022G
CENTER_NAME    = EARTH
REF_FRAME      = TEME
TIME_SYSTEM    = UTC
MEAN_ELEMENT_THEORY = SGP/SGP4

EPOCH          = 2026-02-12T14:00:01.999872
MEAN_MOTION    = 15.86338922
ECCENTRICITY   = .00013064
INCLINATION    = 97.2830
RA_OF_ASC_NODE = 76.2966
ARG_OF_PERICENTER = 89.9298
MEAN_ANOMALY   = 319.5273

EPHEMERIS_TYPE = 0
CLASSIFICATION_TYPE = U
NORAD_CAT_ID   = 67654
ELEMENT_SET_NO = 999
REV_AT_EPOCH   = 285
BSTAR          = -.77424451E-2
MEAN_MOTION_DOT = -.1676753E-1
MEAN_MOTION_DDOT = 0

CCSDS_OMM_VERS = 2.0
CREATION_DATE  = 
ORIGINATOR     = 

OBJECT_NAME    = STARLINK-36720
OBJECT_ID      = 2026-022H
CENTER_NAME    = EARTH
REF_FRAME      = TEME
TIME_SYSTEM    = UTC
MEAN_ELEMENT_THEORY = SGP/SGP4

EPOCH          = 2026-02-12T14:00:01.999872
MEAN_MOTION    = 15.86590028
ECCENTRICITY   = .00013718
INCLINATION    = 97.2832
RA_OF_ASC_NODE = 76.2993
ARG_OF_PERICENTER = 90.4860
MEAN_ANOMALY   = 324.3938

EPHEMERIS_TYPE = 0
CLASSIFICATION_TYPE = U
NORAD_CAT_ID   = 67655
ELEMENT_SET_NO = 999
REV_AT_EPOCH   = 285
BSTAR          = -.76746486E-2
MEAN_MOTION_DOT = -.1681967E-1
MEAN_MOTION_DDOT = 0

CCSDS_OMM_VERS = 2.0
CREATION_DATE  = 
ORIGINATOR     = 

OBJECT_NAME    = STARLINK-36688
OBJECT_ID      = 2026-022J
CENTER_NAME    = EARTH
REF_FRAME      = TEME
TIME_SYSTEM    = UTC
MEAN_ELEMENT_THEORY = SGP/SGP4

EPOCH          = 2026-02-12T14:00:01.999872
MEAN_MOTION    = 15.86759027
ECCENTRICITY   = .00013787
INCLINATION    = 97.2826
RA_OF_ASC_NODE = 76.3002
ARG_OF_PERICENTER = 85.6781
MEAN_ANOMALY   = 333.1664

EPHEMERIS_TYPE = 0
CLASSIFICATION_TYPE = U
NORAD_CAT_ID   = 67656
ELEMENT_SET_NO = 999
REV_AT_EPOCH   = 285
BSTAR          = -.75876861E-2
MEAN_MOTION_DOT = -.1677477E-1
MEAN_MOTION_DDOT = 0

CCSDS_OMM_VERS = 2.0
CREATION_DATE  = 
ORIGINATOR     = 

OBJECT_NAME    = STARLINK-36706
OBJECT_ID      = 2026-022K
CENTER_NAME    = EARTH
REF_FRAME      = TEME
TIME_SYSTEM    = UTC
MEAN_ELEMENT_THEORY = SGP/SGP4

EPOCH          = 2026-02-12T14:00:01.999872
MEAN_MOTION    = 15.86959783
ECCENTRICITY   = .00013856
INCLINATION    = 97.2823
RA_OF_ASC_NODE = 76.3017
ARG_OF_PERICENTER = 85.2228
MEAN_ANOMALY   = 338.1751

EPHEMERIS_TYPE = 0
CLASSIFICATION_TYPE = U
NORAD_CAT_ID   = 67657
ELEMENT_SET_NO = 999
REV_AT_EPOCH   = 282
BSTAR          = -.74973733E-2
MEAN_MOTION_DOT = -.1674456E-1
MEAN_MOTION_DDOT = 0

CCSDS_OMM_VERS = 2.0
CREATION_DATE  = 
ORIGINATOR     = 

OBJECT_NAME    = STARLINK-36701
OBJECT_ID      = 2026-022L
CENTER_NAME    = EARTH
REF_FRAME      = TEME
TIME_SYSTEM    = UTC
MEAN_ELEMENT_THEORY = SGP/SGP4

EPOCH          = 2026-02-12T14:00:01.999872
MEAN_MOTION    = 15.87178804
ECCENTRICITY   = .00013767
INCLINATION    = 97.2823
RA_OF_ASC_NODE = 76.3047
ARG_OF_PERICENTER = 90.4241
MEAN_ANOMALY   = 337.9970

EPHEMERIS_TYPE = 0
CLASSIFICATION_TYPE = U
NORAD_CAT_ID   = 67658
ELEMENT_SET_NO = 999
REV_AT_EPOCH   = 285
BSTAR          = -.73717377E-2
MEAN_MOTION_DOT = -.1665614E-1
MEAN_MOTION_DDOT = 0

CCSDS_OMM_VERS = 2.0
CREATION_DATE  = 
ORIGINATOR     = 

OBJECT_NAME    = STARLINK-36642
OBJECT_ID      = 2026-022M
CENTER_NAME    = EARTH
REF_FRAME      = TEME
TIME_SYSTEM    = UTC
MEAN_ELEMENT_THEORY = SGP/SGP4

EPOCH          = 2026-02-12T14:00:01.999872
MEAN_MOTION    = 15.87341952
ECCENTRICITY   = .00013459
INCLINATION    = 97.2824
RA_OF_ASC_NODE = 76.3063
ARG_OF_PERICENTER = 84.8737
MEAN_ANOMALY   = 347.1945

EPHEMERIS_TYPE = 0
CLASSIFICATION_TYPE = U
NORAD_CAT_ID   = 67659
ELEMENT_SET_NO = 999
REV_AT_EPOCH   = 285
BSTAR          = -.73348038E-2
MEAN_MOTION_DOT = -.1670019E-1
MEAN_MOTION_DDOT = 0

